SKYSAT-A                
1 39418U 13066C   26064.59945762  .00004547  00000+0  26495-3 0  9994
2 39418  97.3959 117.2697 0020371 315.6990  44.2610 15.12318354672823
SKYSAT-B                
1 40072U 14037D   26064.42504092  .00002776  00000+0  31133-3 0  9997
2 40072  98.3726  17.5719 0004205 251.4620 108.6138 14.87706268630534
SKYSAT-C1               
1 41601U 16040C   26064.59250990  .00011590  00000+0  34979-3 0  9990
2 41601  96.9703 101.9859 0003839  61.9031 298.2601 15.34410798541970
SKYSAT-C4               
1 41771U 16058B   26064.57580446  .00018936  00000+0  40020-3 0  9992
2 41771  96.9291  90.8660 0000830  96.7292 263.4053 15.45202039529452
SKYSAT-C5               
1 41772U 16058C   26064.58618605  .00010819  00000+0  32900-3 0  9993
2 41772  97.0617 109.8278 0001828  84.5347 275.6106 15.34196151527869
SKYSAT-C2               
1 41773U 16058D   26064.61374622  .00015535  00000+0  39640-3 0  9994
2 41773  97.0281  90.7259 0005200  77.1146 283.0682 15.39570727529108
SKYSAT-C3               
1 41774U 16058E   26064.61545204  .00024516  00000+0  46828-3 0  9996
2 41774  96.9180  99.6597 0001601 105.1101 255.0328 15.48103267530066
SKYSAT-C11              
1 42987U 17068A   26064.59094850  .00031292  00000+0  51899-3 0  9991
2 42987  97.4197 209.4407 0000743  87.5899 272.5438 15.52081787467142
SKYSAT-C10              
1 42988U 17068B   26064.35738844  .00013828  00000+0  44207-3 0  9994
2 42988  97.4333 200.4491 0001128  90.3517 269.7854 15.32554062466447
SKYSAT-C9               
1 42989U 17068C   26064.09608895  .00018810  00000+0  49259-3 0  9996
2 42989  97.4257 200.1847 0009716 147.8994 212.2845 15.38708919466736
SKYSAT-C8               
1 42990U 17068D   26064.34766968  .00006863  00000+0  20698-3 0  9993
2 42990  97.4349 199.8628 0000859 119.9658 240.1671 15.34624389466378
SKYSAT-C7               
1 42991U 17068E   26064.33761509  .00015853  00000+0  47473-3 0  9998
2 42991  97.4359 200.8353 0007379 116.7846 243.4153 15.34581892466435
SKYSAT-C6               
1 42992U 17068F   26064.65415211  .00015927  00000+0  50738-3 0  9990
2 42992  97.4396 201.4513 0003632 121.6133 238.5464 15.32630748466459
SKYSAT-C12              
1 43797U 18099AR  26064.61484069  .00020512  00000+0  42979-3 0  9996
2 43797  96.9380  92.2038 0005133 149.1452 211.0101 15.45428423405844
SKYSAT-C13              
1 43802U 18099AW  26064.60212046  .00093750  00000+0  60381-3 0  9997
2 43802  96.9408 112.2304 0003494 213.8214 146.2830 15.75889175406526
FLOCK 4Q-16             
1 58271U 23174R   26064.47996447  .00029570  00000+0  63723-3 0  9994
2 58271  97.3868 150.5388 0007934 171.3283 188.8104 15.44516281129542
