[{"OBJECT_NAME":"SKYSAT-A","OBJECT_ID":"2013-066C","EPOCH":"2026-03-05T14:23:13.138368","MEAN_MOTION":15.12318354,"ECCENTRICITY":0.00203719,"INCLINATION":97.3959,"RA_OF_ASC_NODE":117.2697,"ARG_OF_PERICENTER":315.699,"MEAN_ANOMALY":44.261,"EPHEMERIS_TYPE":0,"CLASSIFICATION_TYPE":"U","NORAD_CAT_ID":39418,"ELEMENT_SET_NO":999,"REV_AT_EPOCH":67282,"BSTAR":0.00026494566,"MEAN_MOTION_DOT":4.547e-5,"MEAN_MOTION_DDOT":0},{"OBJECT_NAME":"SKYSAT-B","OBJECT_ID":"2014-037D","EPOCH":"2026-03-05T10:12:03.535488","MEAN_MOTION":14.87706268,"ECCENTRICITY":0.00042054,"INCLINATION":98.3726,"RA_OF_ASC_NODE":17.5719,"ARG_OF_PERICENTER":251.462,"MEAN_ANOMALY":108.6138,"EPHEMERIS_TYPE":0,"CLASSIFICATION_TYPE":"U","NORAD_CAT_ID":40072,"ELEMENT_SET_NO":999,"REV_AT_EPOCH":63053,"BSTAR":0.00031133103,"MEAN_MOTION_DOT":2.776e-5,"MEAN_MOTION_DDOT":0},{"OBJECT_NAME":"SKYSAT-C1","OBJECT_ID":"2016-040C","EPOCH":"2026-03-05T14:13:12.855360","MEAN_MOTION":15.34410798,"ECCENTRICITY":0.00038391,"INCLINATION":96.9703,"RA_OF_ASC_NODE":101.9859,"ARG_OF_PERICENTER":61.9031,"MEAN_ANOMALY":298.2601,"EPHEMERIS_TYPE":0,"CLASSIFICATION_TYPE":"U","NORAD_CAT_ID":41601,"ELEMENT_SET_NO":999,"REV_AT_EPOCH":54197,"BSTAR":0.00034978517,"MEAN_MOTION_DOT":0.0001159,"MEAN_MOTION_DDOT":0},{"OBJECT_NAME":"SKYSAT-C4","OBJECT_ID":"2016-058B","EPOCH":"2026-03-05T13:49:09.505344","MEAN_MOTION":15.45202039,"ECCENTRICITY":8.308e-5,"INCLINATION":96.9291,"RA_OF_ASC_NODE":90.866,"ARG_OF_PERICENTER":96.7292,"MEAN_ANOMALY":263.4053,"EPHEMERIS_TYPE":0,"CLASSIFICATION_TYPE":"U","NORAD_CAT_ID":41771,"ELEMENT_SET_NO":999,"REV_AT_EPOCH":52945,"BSTAR":0.00040019633,"MEAN_MOTION_DOT":0.00018936,"MEAN_MOTION_DDOT":0},{"OBJECT_NAME":"SKYSAT-C5","OBJECT_ID":"2016-058C","EPOCH":"2026-03-05T14:04:06.474720","MEAN_MOTION":15.34196151,"ECCENTRICITY":0.00018289,"INCLINATION":97.0617,"RA_OF_ASC_NODE":109.8278,"ARG_OF_PERICENTER":84.5347,"MEAN_ANOMALY":275.6106,"EPHEMERIS_TYPE":0,"CLASSIFICATION_TYPE":"U","NORAD_CAT_ID":41772,"ELEMENT_SET_NO":999,"REV_AT_EPOCH":52786,"BSTAR":0.00032900449,"MEAN_MOTION_DOT":0.00010819,"MEAN_MOTION_DDOT":0},{"OBJECT_NAME":"SKYSAT-C2","OBJECT_ID":"2016-058D","EPOCH":"2026-03-05T14:43:47.673408","MEAN_MOTION":15.39570727,"ECCENTRICITY":0.00052007,"INCLINATION":97.0281,"RA_OF_ASC_NODE":90.7259,"ARG_OF_PERICENTER":77.1146,"MEAN_ANOMALY":283.0682,"EPHEMERIS_TYPE":0,"CLASSIFICATION_TYPE":"U","NORAD_CAT_ID":41773,"ELEMENT_SET_NO":999,"REV_AT_EPOCH":52910,"BSTAR":0.00039640102,"MEAN_MOTION_DOT":0.00015535,"MEAN_MOTION_DDOT":0},{"OBJECT_NAME":"SKYSAT-C3","OBJECT_ID":"2016-058E","EPOCH":"2026-03-05T14:46:15.056256","MEAN_MOTION":15.48103267,"ECCENTRICITY":0.00016012,"INCLINATION":96.918,"RA_OF_ASC_NODE":99.6597,"ARG_OF_PERICENTER":105.1101,"MEAN_ANOMALY":255.0328,"EPHEMERIS_TYPE":0,"CLASSIFICATION_TYPE":"U","NORAD_CAT_ID":41774,"ELEMENT_SET_NO":999,"REV_AT_EPOCH":53006,"BSTAR":0.00046828293,"MEAN_MOTION_DOT":0.00024516,"MEAN_MOTION_DDOT":0},{"OBJECT_NAME":"SKYSAT-C11","OBJECT_ID":"2017-068A","EPOCH":"2026-03-05T14:10:57.950400","MEAN_MOTION":15.52081787,"ECCENTRICITY":7.434e-5,"INCLINATION":97.4197,"RA_OF_ASC_NODE":209.4407,"ARG_OF_PERICENTER":87.5899,"MEAN_ANOMALY":272.5438,"EPHEMERIS_TYPE":0,"CLASSIFICATION_TYPE":"U","NORAD_CAT_ID":42987,"ELEMENT_SET_NO":999,"REV_AT_EPOCH":46714,"BSTAR":0.00051898751,"MEAN_MOTION_DOT":0.00031292,"MEAN_MOTION_DDOT":0},{"OBJECT_NAME":"SKYSAT-C10","OBJECT_ID":"2017-068B","EPOCH":"2026-03-05T08:34:38.361216","MEAN_MOTION":15.32554062,"ECCENTRICITY":0.0001128,"INCLINATION":97.4333,"RA_OF_ASC_NODE":200.4491,"ARG_OF_PERICENTER":90.3517,"MEAN_ANOMALY":269.7854,"EPHEMERIS_TYPE":0,"CLASSIFICATION_TYPE":"U","NORAD_CAT_ID":42988,"ELEMENT_SET_NO":999,"REV_AT_EPOCH":46644,"BSTAR":0.00044207467,"MEAN_MOTION_DOT":0.00013828,"MEAN_MOTION_DDOT":0},{"OBJECT_NAME":"SKYSAT-C9","OBJECT_ID":"2017-068C","EPOCH":"2026-03-05T02:18:22.085280","MEAN_MOTION":15.38708919,"ECCENTRICITY":0.00097169,"INCLINATION":97.4257,"RA_OF_ASC_NODE":200.1847,"ARG_OF_PERICENTER":147.8994,"MEAN_ANOMALY":212.2845,"EPHEMERIS_TYPE":0,"CLASSIFICATION_TYPE":"U","NORAD_CAT_ID":42989,"ELEMENT_SET_NO":999,"REV_AT_EPOCH":46673,"BSTAR":0.00049259401,"MEAN_MOTION_DOT":0.0001881,"MEAN_MOTION_DDOT":0},{"OBJECT_NAME":"SKYSAT-C8","OBJECT_ID":"2017-068D","EPOCH":"2026-03-05T08:20:38.660352","MEAN_MOTION":15.34624389,"ECCENTRICITY":8.591e-5,"INCLINATION":97.4349,"RA_OF_ASC_NODE":199.8628,"ARG_OF_PERICENTER":119.9658,"MEAN_ANOMALY":240.1671,"EPHEMERIS_TYPE":0,"CLASSIFICATION_TYPE":"U","NORAD_CAT_ID":42990,"ELEMENT_SET_NO":999,"REV_AT_EPOCH":46637,"BSTAR":0.00020697958,"MEAN_MOTION_DOT":6.863e-5,"MEAN_MOTION_DDOT":0},{"OBJECT_NAME":"SKYSAT-C7","OBJECT_ID":"2017-068E","EPOCH":"2026-03-05T08:06:09.943776","MEAN_MOTION":15.34581892,"ECCENTRICITY":0.00073799,"INCLINATION":97.4359,"RA_OF_ASC_NODE":200.8353,"ARG_OF_PERICENTER":116.7846,"MEAN_ANOMALY":243.4153,"EPHEMERIS_TYPE":0,"CLASSIFICATION_TYPE":"U","NORAD_CAT_ID":42991,"ELEMENT_SET_NO":999,"REV_AT_EPOCH":46643,"BSTAR":0.00047473238,"MEAN_MOTION_DOT":0.00015853,"MEAN_MOTION_DDOT":0},{"OBJECT_NAME":"SKYSAT-C6","OBJECT_ID":"2017-068F","EPOCH":"2026-03-05T15:41:58.742304","MEAN_MOTION":15.32630748,"ECCENTRICITY":0.00036321,"INCLINATION":97.4396,"RA_OF_ASC_NODE":201.4513,"ARG_OF_PERICENTER":121.6133,"MEAN_ANOMALY":238.5464,"EPHEMERIS_TYPE":0,"CLASSIFICATION_TYPE":"U","NORAD_CAT_ID":42992,"ELEMENT_SET_NO":999,"REV_AT_EPOCH":46645,"BSTAR":0.0005073802,"MEAN_MOTION_DOT":0.00015927,"MEAN_MOTION_DDOT":0},{"OBJECT_NAME":"SKYSAT-C12","OBJECT_ID":"2018-099AR","EPOCH":"2026-03-05T14:45:22.235616","MEAN_MOTION":15.45428423,"ECCENTRICITY":0.00051334,"INCLINATION":96.938,"RA_OF_ASC_NODE":92.2038,"ARG_OF_PERICENTER":149.1452,"MEAN_ANOMALY":211.0101,"EPHEMERIS_TYPE":0,"CLASSIFICATION_TYPE":"U","NORAD_CAT_ID":43797,"ELEMENT_SET_NO":999,"REV_AT_EPOCH":40584,"BSTAR":0.00042978731,"MEAN_MOTION_DOT":0.00020512,"MEAN_MOTION_DDOT":0},{"OBJECT_NAME":"SKYSAT-C13","OBJECT_ID":"2018-099AW","EPOCH":"2026-03-05T14:27:03.207744","MEAN_MOTION":15.75889175,"ECCENTRICITY":0.00034946,"INCLINATION":96.9408,"RA_OF_ASC_NODE":112.2304,"ARG_OF_PERICENTER":213.8214,"MEAN_ANOMALY":146.283,"EPHEMERIS_TYPE":0,"CLASSIFICATION_TYPE":"U","NORAD_CAT_ID":43802,"ELEMENT_SET_NO":999,"REV_AT_EPOCH":40652,"BSTAR":0.00060380668,"MEAN_MOTION_DOT":0.0009375,"MEAN_MOTION_DDOT":0},{"OBJECT_NAME":"FLOCK 4Q-16","OBJECT_ID":"2023-174R","EPOCH":"2026-03-05T11:31:08.930208","MEAN_MOTION":15.44516281,"ECCENTRICITY":0.00079341,"INCLINATION":97.3868,"RA_OF_ASC_NODE":150.5388,"ARG_OF_PERICENTER":171.3283,"MEAN_ANOMALY":188.8104,"EPHEMERIS_TYPE":0,"CLASSIFICATION_TYPE":"U","NORAD_CAT_ID":58271,"ELEMENT_SET_NO":999,"REV_AT_EPOCH":12954,"BSTAR":0.00063723484,"MEAN_MOTION_DOT":0.0002957,"MEAN_MOTION_DDOT":0}]
